STARLINK-6046           
1 56792U 23078AB  26190.97500517 -.00000430  00000+0 -28291-4 0  9995
2 56792  69.9994  36.2827 0002676 269.1398  90.9455 14.98330270170999
STARLINK-6052           
1 56793U 23078AC  26191.01673648  .00000831  00000+0  77390-4 0  9995
2 56793  69.9993  36.0258 0002678 268.4325  91.6527 14.98329261171008
STARLINK-6060           
1 56794U 23078AD  26190.72441516  .00000440  00000+0  44658-4 0  9997
2 56794  69.9996  16.7433 0002851 266.6143  93.4690 14.98318557171459
STARLINK-6061           
1 56795U 23078AE  26190.76629139 -.00000246  00000+0 -12858-4 0  9994
2 56795  70.0002  16.4876 0002922 269.1339  90.9485 14.98329730171463
STARLINK-6049           
1 56796U 23078AF  26191.30046205  .00000834  00000+0  77677-4 0  9994
2 56796  69.9995  35.4109 0002830 269.4298  90.6537 14.98332847171049
STARLINK-6058           
1 56797U 23078AG  26189.97778785  .00000819  00000+0  76469-4 0  9991
2 56797  69.9995  38.8146 0003026 267.3330  92.7482 14.98313707170843
STARLINK-5953           
1 56799U 23078AJ  26191.28794364  .00000438  00000+0  44535-4 0  9997
2 56799  69.9993  35.3630 0002902 269.6211  90.4616 14.98330269171047
STARLINK-6036           
1 56800U 23078AK  26191.29211261  .00000555  00000+0  54266-4 0  9993
2 56800  69.9994  35.3805 0002783 269.0638  91.0202 14.98332677171042
STARLINK-6087           
1 56801U 23078AL  26190.50745348 -.00000658  00000+0 -47351-4 0  9998
2 56801  69.9995  17.1894 0002993 269.4634  90.6182 14.98322096171421
STARLINK-6029           
1 56803U 23078AN  26190.01115444  .00000478  00000+0  47858-4 0  9994
2 56803  69.9994  38.5353 0002876 267.3350  92.7479 14.98326794170858
STARLINK-6069           
1 56804U 23078AP  26190.51578427 -.00000401  00000+0 -25799-4 0  9992
2 56804  69.9996  17.2194 0002605 268.2951  91.7910 14.98329807172090
STARLINK-6064           
1 56805U 23078AQ  26190.72022424 -.00001218  00000+0 -94301-4 0  9999
2 56805  69.9983  16.7262 0004030 245.6089 114.4649 14.98332533171453
STARLINK-6072           
1 56806U 23078AR  26190.74920264 -.00001672  00000+0 -13239-3 0  9995
2 56806  69.9983 356.5439 0004182 271.6757  88.3923 14.98325012171924
STARLINK-6073           
1 56807U 23078AS  26190.76612640 -.00000839  00000+0 -62515-4 0  9990
2 56807  70.0020  16.4866 0003085 267.7700  92.3106 14.98330684171458
STARLINK-6042           
1 56808U 23078AT  26190.50478093  .00000046  00000+0  11655-4 0  9992
2 56808  70.0002 327.4018 0003298 265.5856  94.4927 14.98329640172665
STARLINK-6040           
1 56809U 23078AU  26190.99170522 -.00000654  00000+0 -47052-4 0  9999
2 56809  69.9990  35.9395 0002885 268.1741  91.9087 14.98298644171006
STARLINK-6031           
1 56810U 23078AV  26191.00837749  .00000715  00000+0  67744-4 0  9991
2 56810  69.9993  35.9952 0003185 267.5500  92.5295 14.98332104171008
STARLINK-6065           
1 56812U 23078AX  26190.50760080 -.00000199  00000+0 -89155-5 0  9999
2 56812  69.9999  17.1958 0002795 265.7011  94.3828 14.98329432171425
STARLINK-6056           
1 56813U 23078AY  26190.65386581 -.00000070  00000+0  19120-5 0  9998
2 56813  69.9996  36.7656 0002898 266.5775  93.5052 14.98331434170957
STARLINK-6059           
1 56814U 23078AZ  26189.92769943  .00001235  00000+0  11134-3 0  9992
2 56814  69.9993  38.6455 0002930 266.1081  93.9744 14.98312979170849
STARLINK-6067           
1 56816U 23078BB  26190.49491190  .00000415  00000+0  42582-4 0  9995
2 56816  69.9999  17.1450 0002827 268.3284  91.7551 14.98326662171429
STARLINK-6028           
1 56818U 23078BD  26191.18777566  .00002998  00000+0  25890-3 0  9998
2 56818  70.0015  35.4177 0002757 271.3563  88.7280 14.98341622171729
STARLINK-30119          
1 56823U 23079A   26191.27663311  .00002906  00000+0  11513-3 0  9993
2 56823  42.9967 134.9804 0000799 305.0452  55.0324 15.27563643172063
STARLINK-30120          
1 56824U 23079B   26191.22538175  .00000177  00000+0  15927-4 0  9990
2 56824  43.0014 135.4602 0000463 285.7794  74.3006 15.27589980171941
STARLINK-30084          
1 56825U 23079C   26190.18418250  .00000779  00000+0  37831-4 0  9992
2 56825  43.0043 140.5515 0001494 266.0586  94.0095 15.27592492171477
STARLINK-30114          
1 56826U 23079D   26191.26895874 -.00008763  00000+0 -30780-3 0  9992
2 56826  42.9579 134.7651 0014881  61.0805 299.1536 15.27600788171945
STARLINK-30151          
1 56827U 23079E   26191.19454499  .00000554  00000+0  29657-4 0  9999
2 56827  42.9981 135.2149 0000982 357.6149   2.4698 15.27590067171620
STARLINK-30152          
1 56828U 23079F   26191.19839319 -.00000096  00000+0  60172-5 0  9998
2 56828  42.9999 135.2489 0001000 255.6351 104.4389 15.27575168171626
STARLINK-30128          
1 56832U 23079K   26191.17458529  .00000914  00000+0  42731-4 0  9999
2 56832  42.9995 109.5092 0000587  30.7871 329.3015 15.27575594165517
STARLINK-30131          
1 56833U 23079L   26191.18646036  .00010333  00000+0  41960-3 0  9991
2 56833  43.0006 114.0395 0002736 191.4850 168.5939 15.24663286171866
