OBJECT_NAME,OBJECT_ID,EPOCH,MEAN_MOTION,ECCENTRICITY,INCLINATION,RA_OF_ASC_NODE,ARG_OF_PERICENTER,MEAN_ANOMALY,EPHEMERIS_TYPE,CLASSIFICATION_TYPE,NORAD_CAT_ID,ELEMENT_SET_NO,REV_AT_EPOCH,BSTAR,MEAN_MOTION_DOT,MEAN_MOTION_DDOT
STARLINK-6046,2023-078AB,2026-07-09T23:24:00.446688,14.98330270,.00026763,69.9994,36.2827,269.1398,90.9455,0,U,56792,999,17099,-.28290726E-4,-.43E-5,0
STARLINK-6052,2023-078AC,2026-07-10T00:24:06.031872,14.98329261,.00026782,69.9993,36.0258,268.4325,91.6527,0,U,56793,999,17100,.77389767E-4,.831E-5,0
STARLINK-6060,2023-078AD,2026-07-09T17:23:09.469824,14.98318557,.00028514,69.9996,16.7433,266.6143,93.4690,0,U,56794,999,17145,.44657654E-4,.44E-5,0
STARLINK-6061,2023-078AE,2026-07-09T18:23:27.576096,14.98329730,.00029226,70.0002,16.4876,269.1339,90.9485,0,U,56795,999,17146,-.12857517E-4,-.246E-5,0
STARLINK-6049,2023-078AF,2026-07-10T07:12:39.921120,14.98332847,.00028308,69.9995,35.4109,269.4298,90.6537,0,U,56796,999,17104,.77677128E-4,.834E-5,0
STARLINK-6058,2023-078AG,2026-07-08T23:28:00.870240,14.98313707,.00030267,69.9995,38.8146,267.3330,92.7482,0,U,56797,999,17084,.76468744E-4,.819E-5,0
STARLINK-5953,2023-078AJ,2026-07-10T06:54:38.330496,14.98330269,.0002902,69.9993,35.3630,269.6211,90.4616,0,U,56799,999,17104,.44535116E-4,.438E-5,0
STARLINK-6036,2023-078AK,2026-07-10T07:00:38.529504,14.98332677,.00027833,69.9994,35.3805,269.0638,91.0202,0,U,56800,999,17104,.5426569E-4,.555E-5,0
STARLINK-6087,2023-078AL,2026-07-09T12:10:43.980672,14.98322096,.00029934,69.9995,17.1894,269.4634,90.6182,0,U,56801,999,17142,-.47350877E-4,-.658E-5,0
STARLINK-6029,2023-078AN,2026-07-09T00:16:03.743616,14.98326794,.00028764,69.9994,38.5353,267.3350,92.7479,0,U,56803,999,17085,.47858446E-4,.478E-5,0
STARLINK-6069,2023-078AP,2026-07-09T12:22:43.760928,14.98329807,.00026057,69.9996,17.2194,268.2951,91.7910,0,U,56804,999,17209,-.25798583E-4,-.401E-5,0
STARLINK-6064,2023-078AQ,2026-07-09T17:17:07.374336,14.98332533,.00040309,69.9983,16.7262,245.6089,114.4649,0,U,56805,999,17145,-.94300531E-4,-.1218E-4,0
STARLINK-6072,2023-078AR,2026-07-09T17:58:51.108096,14.98325012,.00041824,69.9983,356.5439,271.6757,88.3923,0,U,56806,999,17192,-.1323926E-3,-.1672E-4,0
STARLINK-6073,2023-078AS,2026-07-09T18:23:13.320960,14.98330684,.00030852,70.0020,16.4866,267.7700,92.3106,0,U,56807,999,17145,-.62514779E-4,-.839E-5,0
STARLINK-6042,2023-078AT,2026-07-09T12:06:53.072352,14.98329640,.00032989,70.0002,327.4018,265.5856,94.4927,0,U,56808,999,17266,.11654564E-4,.46E-6,0
STARLINK-6040,2023-078AU,2026-07-09T23:48:03.331008,14.98298644,.00028858,69.9990,35.9395,268.1741,91.9087,0,U,56809,999,17100,-.47051789E-4,-.654E-5,0
STARLINK-6031,2023-078AV,2026-07-10T00:12:03.815136,14.98332104,.00031855,69.9993,35.9952,267.5500,92.5295,0,U,56810,999,17100,.67743557E-4,.715E-5,0
STARLINK-6065,2023-078AX,2026-07-09T12:10:56.709120,14.98329432,.00027954,69.9999,17.1958,265.7011,94.3828,0,U,56812,999,17142,-.8915465E-5,-.199E-5,0
STARLINK-6056,2023-078AY,2026-07-09T15:41:34.005984,14.98331434,.00028983,69.9996,36.7656,266.5775,93.5052,0,U,56813,999,17095,.1911955E-5,-.7E-6,0
STARLINK-6059,2023-078AZ,2026-07-08T22:15:53.230752,14.98312979,.00029303,69.9993,38.6455,266.1081,93.9744,0,U,56814,999,17084,.11133779E-3,.1235E-4,0
STARLINK-6067,2023-078BB,2026-07-09T11:52:40.388160,14.98326662,.00028273,69.9999,17.1450,268.3284,91.7551,0,U,56816,999,17142,.42581827E-4,.415E-5,0
STARLINK-6028,2023-078BD,2026-07-10T04:30:23.817024,14.98341622,.00027575,70.0015,35.4177,271.3563,88.7280,0,U,56818,999,17172,.25889945E-3,.2998E-4,0
STARLINK-30119,2023-079A,2026-07-10T06:38:21.100704,15.27563643,.00007995,42.9967,134.9804,305.0452,55.0324,0,U,56823,999,17206,.11512879E-3,.2906E-4,0
STARLINK-30120,2023-079B,2026-07-10T05:24:32.983200,15.27589980,.00004635,43.0014,135.4602,285.7794,74.3006,0,U,56824,999,17194,.15927228E-4,.177E-5,0
STARLINK-30084,2023-079C,2026-07-09T04:25:13.368000,15.27592492,.00014942,43.0043,140.5515,266.0586,94.0095,0,U,56825,999,17147,.37831349E-4,.779E-5,0
STARLINK-30114,2023-079D,2026-07-10T06:27:18.035136,15.27600788,.00148813,42.9579,134.7651,61.0805,299.1536,0,U,56826,999,17194,-.30780364E-3,-.8763E-4,0
STARLINK-30151,2023-079E,2026-07-10T04:40:08.687136,15.27590067,.00009827,42.9981,135.2149,357.6149,2.4698,0,U,56827,999,17162,.29656593E-4,.554E-5,0
STARLINK-30152,2023-079F,2026-07-10T04:45:41.171616,15.27575168,.00010002,42.9999,135.2489,255.6351,104.4389,0,U,56828,999,17162,.6017249E-5,-.96E-6,0
STARLINK-30128,2023-079K,2026-07-10T04:11:24.169056,15.27575594,.00005873,42.9995,109.5092,30.7871,329.3015,0,U,56832,999,16551,.42731494E-4,.914E-5,0
STARLINK-30131,2023-079L,2026-07-10T04:28:30.175104,15.24663286,.00027361,43.0006,114.0395,191.4850,168.5939,0,U,56833,999,17186,.4196007E-3,.10333E-3,0
